{"type": "FeatureCollection", "features": [ {"type": "Feature", "properties": {"norad_id": 30609, "name": "FENGYUN 1C DEB", "group": "fengyun-1c-debris", "lat": 10.791226163814809, "lon": -107.76336122436152, "alt_km": 826.7338138912519, "timestamp": "2025-12-02T19:35:50.833411+00:00", "meta": {"OBJECT_NAME": "FENGYUN 1C DEB", "OBJECT_ID": "1999-025AMQ", "EPOCH": "2025-11-30T06:16:53.529024", "MEAN_MOTION": 14.11053951, "ECCENTRICITY": 0.01184109, "INCLINATION": 98.5666, "RA_OF_ASC_NODE": 251.4454, "ARG_OF_PERICENTER": 88.1838, "MEAN_ANOMALY": 273.2891, "EPHEMERIS_TYPE": 0, "CLASSIFICATION_TYPE": "U", "NORAD_CAT_ID": 30609, "ELEMENT_SET_NO": 999, "REV_AT_EPOCH": 95552, "BSTAR": 0.0021771163, "MEAN_MOTION_DOT": 4.143e-05, "MEAN_MOTION_DDOT": 0}, "tle": {"line1": "1 30609U 99025AMQ 25334.26173066  .00004143  00000+0  21771-2 0  9992", "line2": "2 30609  98.5666 251.4454 0118410  88.1838 273.2891 14.11053951955524"}}, "geometry": {"type": "Point", "coordinates": [-107.76336122436152, 10.791226163814809]}}, {"type": "Feature", "properties": {"norad_id": 30612, "name": "FENGYUN 1C DEB", "group": "fengyun-1c-debris", "lat": 47.212179458937165, "lon": -46.130076728529, "alt_km": 459.421035341019, "timestamp": "2025-12-02T19:35:50.833422+00:00", "meta": {"OBJECT_NAME": "FENGYUN 1C DEB", "OBJECT_ID": "1999-025AMT", "EPOCH": "2025-12-02T12:04:08.919264", "MEAN_MOTION": 15.2669278, "ECCENTRICITY": 0.0035943, "INCLINATION": 99.0832, "RA_OF_ASC_NODE": 323.442, "ARG_OF_PERICENTER": 21.6624, "MEAN_ANOMALY": 103.2341, "EPHEMERIS_TYPE": 0, "CLASSIFICATION_TYPE": "U", "NORAD_CAT_ID": 30612, "ELEMENT_SET_NO": 999, "REV_AT_EPOCH": 101, "BSTAR": 0.0043376, "MEAN_MOTION_DOT": 0.00117633, "MEAN_MOTION_DDOT": 0}, "tle": {"line1": "1 30612U 99025AMT 25336.50288101  .00117633  00000+0  43376-2 0  9996", "line2": "2 30612  99.0832 323.4420 0035943  21.6624 103.2341 15.26692780  1010"}}, "geometry": {"type": "Point", "coordinates": [-46.130076728529, 47.212179458937165]}}, {"type": "Feature", "properties": {"norad_id": 30613, "name": "FENGYUN 1C DEB", "group": "fengyun-1c-debris", "lat": -62.18209292023033, "lon": -100.44620913319025, "alt_km": 492.76865568325593, "timestamp": "2025-12-02T19:35:50.833432+00:00", "meta": {"OBJECT_NAME": "FENGYUN 1C DEB", "OBJECT_ID": "1999-025AMU", "EPOCH": "2025-12-02T07:25:37.381152", "MEAN_MOTION": 15.14348956, "ECCENTRICITY": 0.007352, "INCLINATION": 98.3075, "RA_OF_ASC_NODE": 95.0776, "ARG_OF_PERICENTER": 201.6953, "MEAN_ANOMALY": 158.1158, "EPHEMERIS_TYPE": 0, "CLASSIFICATION_TYPE": "U", "NORAD_CAT_ID": 30613, "ELEMENT_SET_NO": 999, "REV_AT_EPOCH": 99238, "BSTAR": 0.0051243, "MEAN_MOTION_DOT": 0.0010165, "MEAN_MOTION_DDOT": 0}, "tle": {"line1": "1 30613U 99025AMU 25336.30946043  .00101650  00000+0  51243-2 0  9995", "line2": "2 30613  98.3075  95.0776 0073520 201.6953 158.1158 15.14348956992380"}}, "geometry": {"type": "Point", "coordinates": [-100.44620913319025, -62.18209292023033]}}, {"type": "Feature", "properties": {"norad_id": 30616, "name": "FENGYUN 1C DEB", "group": "fengyun-1c-debris", "lat": -81.1833385858169, "lon": 115.17243085850878, "alt_km": 850.4370240402259, "timestamp": "2025-12-02T19:35:50.833442+00:00", "meta": {"OBJECT_NAME": "FENGYUN 1C DEB", "OBJECT_ID": "1999-025AMX", "EPOCH": "2025-12-01T02:40:28.136928", "MEAN_MOTION": 13.35960753, "ECCENTRICITY": 0.03793208, "INCLINATION": 98.6423, "RA_OF_ASC_NODE": 35.0591, "ARG_OF_PERICENTER": 285.1776, "MEAN_ANOMALY": 70.7708, "EPHEMERIS_TYPE": 0, "CLASSIFICATION_TYPE": "U", "NORAD_CAT_ID": 30616, "ELEMENT_SET_NO": 999, "REV_AT_EPOCH": 91545, "BSTAR": 0.0016746781, "MEAN_MOTION_DOT": 1.254e-05, "MEAN_MOTION_DDOT": 0}, "tle": {"line1": "1 30616U 99025AMX 25335.11143677  .00001254  00000+0  16747-2 0  9997", "line2": "2 30616  98.6423  35.0591 0379320 285.1776  70.7708 13.35960753915458"}}, "geometry": {"type": "Point", "coordinates": [115.17243085850878, -81.1833385858169]}}, {"type": "Feature", "properties": {"norad_id": 30619, "name": "FENGYUN 1C DEB", "group": "fengyun-1c-debris", "lat": 74.91757873241693, "lon": -32.75026798777045, "alt_km": 596.2535816027394, "timestamp": "2025-12-02T19:35:50.833453+00:00", "meta": {"OBJECT_NAME": "FENGYUN 1C DEB", "OBJECT_ID": "1999-025ANA", "EPOCH": "2025-12-02T07:35:03.110208", "MEAN_MOTION": 14.41053394, "ECCENTRICITY": 0.021625, "INCLINATION": 98.2966, "RA_OF_ASC_NODE": 359.5465, "ARG_OF_PERICENTER": 89.7964, "MEAN_ANOMALY": 272.8003, "EPHEMERIS_TYPE": 0, "CLASSIFICATION_TYPE": "U", "NORAD_CAT_ID": 30619, "ELEMENT_SET_NO": 999, "REV_AT_EPOCH": 98799, "BSTAR": 0.00037148, "MEAN_MOTION_DOT": 1.53e-05, "MEAN_MOTION_DDOT": 0}, "tle": {"line1": "1 30619U 99025ANA 25336.31600822  .00001530  00000+0  37148-3 0  9999", "line2": "2 30619  98.2966 359.5465 0216250  89.7964 272.8003 14.41053394987995"}}, "geometry": {"type": "Point", "coordinates": [-32.75026798777045, 74.91757873241693]}}, {"type": "Feature", "properties": {"norad_id": 30621, "name": "FENGYUN 1C DEB", "group": "fengyun-1c-debris", "lat": -47.725889960070035, "lon": -69.64711949377357, "alt_km": 794.1867917420241, "timestamp": "2025-12-02T19:35:50.833464+00:00", "meta": {"OBJECT_NAME": "FENGYUN 1C DEB", "OBJECT_ID": "1999-025ANC", "EPOCH": "2025-11-27T20:21:54.624960", "MEAN_MOTION": 14.03618645, "ECCENTRICITY": 0.0139383, "INCLINATION": 98.6958, "RA_OF_ASC_NODE": 275.9086, "ARG_OF_PERICENTER": 347.9886, "MEAN_ANOMALY": 74.2301, "EPHEMERIS_TYPE": 0, "CLASSIFICATION_TYPE": "U", "NORAD_CAT_ID": 30621, "ELEMENT_SET_NO": 999, "REV_AT_EPOCH": 95381, "BSTAR": 0.0029279, "MEAN_MOTION_DOT": 4.971e-05, "MEAN_MOTION_DDOT": 0}, "tle": {"line1": "1 30621U 99025ANC 25331.84854890  .00004971  00000+0  29279-2 0  9998", "line2": "2 30621  98.6958 275.9086 0139383 347.9886  74.2301 14.03618645953819"}}, "geometry": {"type": "Point", "coordinates": [-69.64711949377357, -47.725889960070035]}}, {"type": "Feature", "properties": {"norad_id": 30622, "name": "FENGYUN 1C DEB", "group": "fengyun-1c-debris", "lat": -56.42068515564933, "lon": 2.7848553774449054, "alt_km": 804.2478958034098, "timestamp": "2025-12-02T19:35:50.833474+00:00", "meta": {"OBJECT_NAME": "FENGYUN 1C DEB", "OBJECT_ID": "1999-025AND", "EPOCH": "2025-12-01T20:55:45.254784", "MEAN_MOTION": 14.30903579, "ECCENTRICITY": 0.00727058, "INCLINATION": 101.0025, "RA_OF_ASC_NODE": 344.5514, "ARG_OF_PERICENTER": 44.513, "MEAN_ANOMALY": 75.4233, "EPHEMERIS_TYPE": 0, "CLASSIFICATION_TYPE": "U", "NORAD_CAT_ID": 30622, "ELEMENT_SET_NO": 999, "REV_AT_EPOCH": 68642, "BSTAR": 0.00369538, "MEAN_MOTION_DOT": 9.941e-05, "MEAN_MOTION_DDOT": 0}, "tle": {"line1": "1 30622U 99025AND 25335.87205156  .00009941  00000+0  36954-2 0  9991", "line2": "2 30622 101.0025 344.5514 0072705  44.5130  75.4233 14.30903579686429"}}, "geometry": {"type": "Point", "coordinates": [2.7848553774449054, -56.42068515564933]}}, {"type": "Feature", "properties": {"norad_id": 30623, "name": "FENGYUN 1C DEB", "group": "fengyun-1c-debris", "lat": 0.6063889636053319, "lon": -22.95712459040043, "alt_km": 938.1468614129399, "timestamp": "2025-12-02T19:35:50.833485+00:00", "meta": {"OBJECT_NAME": "FENGYUN 1C DEB", "OBJECT_ID": "1999-025ANE", "EPOCH": "2025-12-02T11:39:13.991040", "MEAN_MOTION": 13.29326232, "ECCENTRICITY": 0.0403853, "INCLINATION": 98.8232, "RA_OF_ASC_NODE": 156.6649, "ARG_OF_PERICENTER": 133.1184, "MEAN_ANOMALY": 259.7178, "EPHEMERIS_TYPE": 0, "CLASSIFICATION_TYPE": "U", "NORAD_CAT_ID": 30623, "ELEMENT_SET_NO": 999, "REV_AT_EPOCH": 91080, "BSTAR": 0.00071898, "MEAN_MOTION_DOT": 4.88e-06, "MEAN_MOTION_DDOT": 0}, "tle": {"line1": "1 30623U 99025ANE 25336.48557860  .00000488  00000+0  71898-3 0  9996", "line2": "2 30623  98.8232 156.6649 0403853 133.1184 259.7178 13.29326232910809"}}, "geometry": {"type": "Point", "coordinates": [-22.95712459040043, 0.6063889636053319]}}, {"type": "Feature", "properties": {"norad_id": 30624, "name": "FENGYUN 1C DEB", "group": "fengyun-1c-debris", "lat": -26.968012192077467, "lon": -126.49150911599537, "alt_km": 693.9924565107531, "timestamp": "2025-12-02T19:35:50.833495+00:00", "meta": {"OBJECT_NAME": "FENGYUN 1C DEB", "OBJECT_ID": "1999-025ANF", "EPOCH": "2025-12-02T03:51:45.205632", "MEAN_MOTION": 14.61509511, "ECCENTRICITY": 0.0020718, "INCLINATION": 98.8865, "RA_OF_ASC_NODE": 57.3707, "ARG_OF_PERICENTER": 299.6498, "MEAN_ANOMALY": 60.2637, "EPHEMERIS_TYPE": 0, "CLASSIFICATION_TYPE": "U", "NORAD_CAT_ID": 30624, "ELEMENT_SET_NO": 999, "REV_AT_EPOCH": 97341, "BSTAR": 0.0051518023, "MEAN_MOTION_DOT": 0.0002567, "MEAN_MOTION_DDOT": 0}, "tle": {"line1": "1 30624U 99025ANF 25336.16093988  .00025670  00000+0  51518-2 0  9994", "line2": "2 30624  98.8865  57.3707 0020718 299.6498  60.2637 14.61509511973416"}}, "geometry": {"type": "Point", "coordinates": [-126.49150911599537, -26.968012192077467]}}, {"type": "Feature", "properties": {"norad_id": 30625, "name": "FENGYUN 1C DEB", "group": "fengyun-1c-debris", "lat": 1.1679622681447104, "lon": 112.51991215923472, "alt_km": 790.7599614239762, "timestamp": "2025-12-02T19:35:50.833506+00:00", "meta": {"OBJECT_NAME": "FENGYUN 1C DEB", "OBJECT_ID": "1999-025ANG", "EPOCH": "2025-12-01T19:26:16.190304", "MEAN_MOTION": 14.40979932, "ECCENTRICITY": 0.00517538, "INCLINATION": 98.9271, "RA_OF_ASC_NODE": 291.2858, "ARG_OF_PERICENTER": 334.5752, "MEAN_ANOMALY": 25.289, "EPHEMERIS_TYPE": 0, "CLASSIFICATION_TYPE": "U", "NORAD_CAT_ID": 30625, "ELEMENT_SET_NO": 999, "REV_AT_EPOCH": 96535, "BSTAR": 0.0048679543, "MEAN_MOTION_DOT": 0.00015879, "MEAN_MOTION_DDOT": 0}, "tle": {"line1": "1 30625U 99025ANG 25335.80990961  .00015879  00000+0  48680-2 0  9998", "line2": "2 30625  98.9271 291.2858 0051753 334.5752  25.2890 14.40979932965351"}}, "geometry": {"type": "Point", "coordinates": [112.51991215923472, 1.1679622681447104]}}]}